[{"OBJECT_NAME":"STARLINK-5688","OBJECT_ID":"2023-015AG","EPOCH":"2026-03-09T00:07:54.086304","MEAN_MOTION":15.02536651,"ECCENTRICITY":0.00015668,"INCLINATION":43.0057,"RA_OF_ASC_NODE":317.3377,"ARG_OF_PERICENTER":265.3428,"MEAN_ANOMALY":94.7236,"EPHEMERIS_TYPE":0,"CLASSIFICATION_TYPE":"U","NORAD_CAT_ID":55479,"ELEMENT_SET_NO":999,"REV_AT_EPOCH":17079,"BSTAR":2.7848221e-5,"MEAN_MOTION_DOT":1.72e-6,"MEAN_MOTION_DDOT":0},{"OBJECT_NAME":"THOR ABLE DEB [YO]","OBJECT_ID":"1960-002D","EPOCH":"2026-03-09T10:49:33.639456","MEAN_MOTION":14.97533438,"ECCENTRICITY":0.00268025,"INCLINATION":48.1611,"RA_OF_ASC_NODE":231.3365,"ARG_OF_PERICENTER":170.582,"MEAN_ANOMALY":189.5606,"EPHEMERIS_TYPE":0,"CLASSIFICATION_TYPE":"U","NORAD_CAT_ID":115,"ELEMENT_SET_NO":999,"REV_AT_EPOCH":50318,"BSTAR":0.00053607823,"MEAN_MOTION_DOT":6.13e-5,"MEAN_MOTION_DDOT":0}]
